[{"OBJECT_NAME":"STARLINK-2112","OBJECT_ID":"2021-005AU","EPOCH":"2026-03-09T22:08:53.724192","MEAN_MOTION":15.06402406,"ECCENTRICITY":0.00018142,"INCLINATION":53.0572,"RA_OF_ASC_NODE":30.5734,"ARG_OF_PERICENTER":98.0184,"MEAN_ANOMALY":262.1011,"EPHEMERIS_TYPE":0,"CLASSIFICATION_TYPE":"U","NORAD_CAT_ID":47391,"ELEMENT_SET_NO":999,"REV_AT_EPOCH":28349,"BSTAR":0.00010925329,"MEAN_MOTION_DOT":1.346e-5,"MEAN_MOTION_DDOT":0},{"OBJECT_NAME":"COSMOS 375","OBJECT_ID":"1970-091A","EPOCH":"2026-03-09T16:41:37.064832","MEAN_MOTION":12.97415752,"ECCENTRICITY":0.09512894,"INCLINATION":62.8181,"RA_OF_ASC_NODE":201.7511,"ARG_OF_PERICENTER":174.0663,"MEAN_ANOMALY":187.2629,"EPHEMERIS_TYPE":0,"CLASSIFICATION_TYPE":"U","NORAD_CAT_ID":4598,"ELEMENT_SET_NO":999,"REV_AT_EPOCH":61567,"BSTAR":0.00022968696,"MEAN_MOTION_DOT":5.02e-6,"MEAN_MOTION_DDOT":0}]
